FACSAT-2                
1 56205U 23054AD  23334.13040326  .00029399  00000+0  10619-2 0  9996
2 56205  97.3872 227.4676 0014636 136.4164 223.8234 15.28329841 35493
