{"type": "Feature", "geometry": {"type": "Point", "coordinates": ["-98.21", "21.12"]}, "properties": {"temperature": "21", "pressure": "1,012", "localTime": "Thu Nov 30 2023 10:59:26 GMT-0500 (hora est\u00e1ndar de Colombia)", "julianTime": "1701359966", "utcTime": "10:59:38 AM", "altitude": "488.28", "elevation": "-29.2", "TLE": {"Norad_Id": 56205, "International_Classification": "Unclassified", "International_Designation": "23054AD", "Epoch_Time_(ISO)": "2023-11-30T03:07:47Z", "First_Derivative_Mean_Motion": 0.00029399, "Second_Derivative_Mean_Motion": 0.0, "Inclination": 97.3872, "Right_Ascension_of_the_Ascending_Node": 227.4676, "Eccentricity": 0.0014636, "Argument_of_Perigee": 136.4164, "Mean_Anomaly": 223.8234, "Mean_Motion": 15.28329841, "Revolution_Number_at_Epoch": 3549}}}